STARLINK-36716          
1 67699U 26025G   26142.26303948  .00023470  00000+0  72665-3 0  9996
2 67699  97.2840 253.8509 0001728 105.3683 254.7750 15.33462072 17297
STARLINK-36712          
1 67700U 26025H   26142.30925771  .00021312  00000+0  66011-3 0  9999
2 67700  97.2851 253.9422 0001455  94.0497 266.0912 15.33468160 17291
STARLINK-36713          
1 67701U 26025J   26142.26031976  .00021729  00000+0  67297-3 0  9999
2 67701  97.2855 253.8561 0001564  87.2128 272.9294 15.33467032 17291
STARLINK-36695          
1 67702U 26025K   26142.28479193  .00021948  00000+0  67976-3 0  9996
2 67702  97.2843 253.9747 0002016  94.5555 265.5918 15.33464717 17292
STARLINK-36630          
1 67703U 26025L   26142.29838661  .00018654  00000+0  57852-3 0  9999
2 67703  97.2864 253.9574 0001641  94.8353 265.3077 15.33455509 17299
STARLINK-36338          
1 67704U 26025M   26141.87422918  .00021937  00000+0  67958-3 0  9993
2 67704  97.2828 253.4626 0001214  75.6387 284.4991 15.33457545 17225
STARLINK-36316          
1 67705U 26025N   26142.25759967  .00010354  00000+0  32254-3 0  9996
2 67705  97.2843 253.8520 0001094 139.8777 220.2547 15.33450055 17282
STARLINK-36707          
1 67706U 26025P   26142.24944630  .00026316  00000+0  81413-3 0  9995
2 67706  97.2849 253.8739 0002021  76.3860 283.7608 15.33463427 17289
STARLINK-36645          
1 67707U 26025Q   26142.27663501  .00015745  00000+0  48879-3 0  9997
2 67707  97.2847 253.9862 0001621  98.0861 262.0566 15.33459331 17296
STARLINK-36287          
1 67708U 26025R   26142.28751137  .00024052  00000+0  74450-3 0  9997
2 67708  97.2828 253.9721 0001945 108.5559 251.5895 15.33463648 17306
STARLINK-36698          
1 67709U 26025S   26141.88783989  .00019402  00000+0  60228-3 0  9994
2 67709  97.2830 253.5974 0000374 155.6898 204.4362 15.33418207 17239
STARLINK-36344          
1 67710U 26025T   26142.04280241  .00021851  00000+0  67703-3 0  9994
2 67710  97.2847 253.6938 0000475 102.8604 257.2692 15.33453737 17263
STARLINK-36687          
1 67711U 26025U   26142.27391706  .00019630  00000+0  60862-3 0  9990
2 67711  97.2849 253.9960 0001378  72.9003 287.2391 15.33453432 17303
STARLINK-36705          
1 67712U 26025V   26142.25488443  .00028012  00000+0  86628-3 0  9996
2 67712  97.2865 253.8638 0001941  87.4682 272.6782 15.33462409 17286
STARLINK-36708          
1 67713U 26025W   26142.27244437  .00025311  00000+0  78311-3 0  9991
2 67713  97.2841 253.0779 0000679  91.2823 268.8498 15.33470371 17239
STARLINK-36702          
1 67714U 26025X   26142.25216620  .00024836  00000+0  76862-3 0  9993
2 67714  97.2864 253.8661 0002472  82.6734 277.4790 15.33462411 17283
STARLINK-36718          
1 67715U 26025Y   26142.30654270  .00006203  00000+0  19431-3 0  9994
2 67715  97.2846 253.9495 0000543 118.6313 241.4984 15.33444418 17294
STARLINK-36715          
1 67716U 26025Z   26142.27121222  .00015851  00000+0  49255-3 0  9993
2 67716  97.2832 253.8452 0000292 155.3580 204.7677 15.33429132 17283
STARLINK-36385          
1 67717U 26025AA  26142.02920982  .00012906  00000+0  40132-3 0  9990
2 67717  97.2840 253.7155 0001246  94.2552 265.8833 15.33452735 17256
STARLINK-36772          
1 67721U 26026A   26142.17656058  .00018203  00000+0  56472-3 0  9992
2 67721  97.2839 195.6740 0000530  66.7737 293.3561 15.33449947 15384
STARLINK-36796          
1 67722U 26026B   26142.10858451  .00016210  00000+0  50322-3 0  9991
2 67722  97.2825 195.6119 0000666 122.8168 237.3139 15.33452616 15377
STARLINK-36369          
1 67723U 26026C   26142.10587266  .00010737  00000+0  33442-3 0  9997
2 67723  97.2852 195.6190 0000522 236.1515 123.9679 15.33445618 15376
STARLINK-36752          
1 67724U 26026D   26142.10314735  .00021006  00000+0  65095-3 0  9997
2 67724  97.2812 195.6196 0001770 111.5081 248.6351 15.33455111 15370
STARLINK-36754          
1 67725U 26026E   26142.10042793  .00022833  00000+0  70724-3 0  9994
2 67725  97.2816 195.6228 0001788 117.1996 242.9429 15.33453108 15374
STARLINK-36755          
1 67726U 26026F   26142.09770705  .00018081  00000+0  56084-3 0  9997
2 67726  97.2813 195.6279 0001931 145.7312 214.4056 15.33454986 15372
STARLINK-36741          
1 67727U 26026G   26142.09499222  .00015056  00000+0  46762-3 0  9991
2 67727  97.2847 195.6317 0001685 104.7308 255.4122 15.33453166 15377
STARLINK-36757          
1 67728U 26026H   26142.09227083  .00013220  00000+0  41093-3 0  9999
2 67728  97.2863 195.6383 0002259 120.4816 239.6650 15.33456201 15379
STARLINK-36751          
1 67729U 26026J   26142.08683160  .00017586  00000+0  54555-3 0  9997
2 67729  97.2850 195.6452 0001361 114.0895 246.0491 15.33459264 15379
STARLINK-36747          
1 67730U 26026K   26142.08955144  .00016707  00000+0  51849-3 0  9990
2 67730  97.2853 195.6425 0002374 117.1524 242.9961 15.33456104 15379
STARLINK-36315          
1 67731U 26026L   26142.08411307  .00019465  00000+0  60344-3 0  9993
2 67731  97.2840 195.6485 0001732 120.0999 240.0416 15.33457817 15374
