OBJECT_NAME,OBJECT_ID,EPOCH,MEAN_MOTION,ECCENTRICITY,INCLINATION,RA_OF_ASC_NODE,ARG_OF_PERICENTER,MEAN_ANOMALY,EPHEMERIS_TYPE,CLASSIFICATION_TYPE,NORAD_CAT_ID,ELEMENT_SET_NO,REV_AT_EPOCH,BSTAR,MEAN_MOTION_DOT,MEAN_MOTION_DDOT
STARLINK-36716,2026-025G,2026-05-22T06:18:46.611072,15.33462072,.00017285,97.2840,253.8509,105.3683,254.7750,0,U,67699,999,1729,.72665121E-3,.2347E-3,0
STARLINK-36712,2026-025H,2026-05-22T07:25:19.866144,15.33468160,.00014555,97.2851,253.9422,94.0497,266.0912,0,U,67700,999,1729,.66010853E-3,.21312E-3,0
STARLINK-36713,2026-025J,2026-05-22T06:14:51.627264,15.33467032,.00015641,97.2855,253.8561,87.2128,272.9294,0,U,67701,999,1729,.67296682E-3,.21729E-3,0
STARLINK-36695,2026-025K,2026-05-22T06:50:06.022752,15.33464717,.00020162,97.2843,253.9747,94.5555,265.5918,0,U,67702,999,1729,.67976184E-3,.21948E-3,0
STARLINK-36630,2026-025L,2026-05-22T07:09:40.603104,15.33455509,.00016412,97.2864,253.9574,94.8353,265.3077,0,U,67703,999,1729,.57851566E-3,.18654E-3,0
STARLINK-36338,2026-025M,2026-05-21T20:58:53.401152,15.33457545,.00012144,97.2828,253.4626,75.6387,284.4991,0,U,67704,999,1722,.67957627E-3,.21937E-3,0
STARLINK-36316,2026-025N,2026-05-22T06:10:56.611488,15.33450055,.00010945,97.2843,253.8520,139.8777,220.2547,0,U,67705,999,1728,.32253695E-3,.10354E-3,0
STARLINK-36707,2026-025P,2026-05-22T05:59:12.160320,15.33463427,.00020217,97.2849,253.8739,76.3860,283.7608,0,U,67706,999,1728,.81413234E-3,.26316E-3,0
STARLINK-36645,2026-025Q,2026-05-22T06:38:21.264864,15.33459331,.00016217,97.2847,253.9862,98.0861,262.0566,0,U,67707,999,1729,.48878726E-3,.15745E-3,0
STARLINK-36287,2026-025R,2026-05-22T06:54:00.982368,15.33463648,.00019457,97.2828,253.9721,108.5559,251.5895,0,U,67708,999,1730,.74449564E-3,.24052E-3,0
STARLINK-36698,2026-025S,2026-05-21T21:18:29.366496,15.33418207,.00003745,97.2830,253.5974,155.6898,204.4362,0,U,67709,999,1723,.60227527E-3,.19402E-3,0
STARLINK-36344,2026-025T,2026-05-22T01:01:38.128224,15.33453737,.00004757,97.2847,253.6938,102.8604,257.2692,0,U,67710,999,1726,.67703444E-3,.21851E-3,0
STARLINK-36687,2026-025U,2026-05-22T06:34:26.433984,15.33453432,.00013789,97.2849,253.9960,72.9003,287.2391,0,U,67711,999,1730,.60861644E-3,.1963E-3,0
STARLINK-36705,2026-025V,2026-05-22T06:07:02.014752,15.33462409,.0001941,97.2865,253.8638,87.4682,272.6782,0,U,67712,999,1728,.86627996E-3,.28012E-3,0
STARLINK-36708,2026-025W,2026-05-22T06:32:19.193568,15.33470371,.00006792,97.2841,253.0779,91.2823,268.8498,0,U,67713,999,1723,.78310683E-3,.25311E-3,0
STARLINK-36702,2026-025X,2026-05-22T06:03:07.159680,15.33462411,.00024724,97.2864,253.8661,82.6734,277.4790,0,U,67714,999,1728,.76861832E-3,.24836E-3,0
STARLINK-36718,2026-025Y,2026-05-22T07:21:25.289280,15.33444418,.00005432,97.2846,253.9495,118.6313,241.4984,0,U,67715,999,1729,.19431474E-3,.6203E-4,0
STARLINK-36715,2026-025Z,2026-05-22T06:30:32.735808,15.33429132,.00002923,97.2832,253.8452,155.3580,204.7677,0,U,67716,999,1728,.49254559E-3,.15851E-3,0
STARLINK-36385,2026-025AA,2026-05-22T00:42:03.728448,15.33452735,.00012464,97.2840,253.7155,94.2552,265.8833,0,U,67717,999,1725,.40132006E-3,.12906E-3,0
STARLINK-36772,2026-026A,2026-05-22T04:14:14.834112,15.33449947,.00005302,97.2839,195.6740,66.7737,293.3561,0,U,67721,999,1538,.56471908E-3,.18203E-3,0
STARLINK-36796,2026-026B,2026-05-22T02:36:21.701664,15.33452616,.00006667,97.2825,195.6119,122.8168,237.3139,0,U,67722,999,1537,.50322334E-3,.1621E-3,0
STARLINK-36369,2026-026C,2026-05-22T02:32:27.397824,15.33445618,.00005226,97.2852,195.6190,236.1515,123.9679,0,U,67723,999,1537,.33442246E-3,.10737E-3,0
STARLINK-36752,2026-026D,2026-05-22T02:28:31.931040,15.33455111,.00017703,97.2812,195.6196,111.5081,248.6351,0,U,67724,999,1537,.65094592E-3,.21006E-3,0
STARLINK-36754,2026-026E,2026-05-22T02:24:36.973152,15.33453108,.00017884,97.2816,195.6228,117.1996,242.9429,0,U,67725,999,1537,.70724264E-3,.22833E-3,0
STARLINK-36755,2026-026F,2026-05-22T02:20:41.889120,15.33454986,.00019313,97.2813,195.6279,145.7312,214.4056,0,U,67726,999,1537,.56084075E-3,.18081E-3,0
STARLINK-36741,2026-026G,2026-05-22T02:16:47.327808,15.33453166,.00016855,97.2847,195.6317,104.7308,255.4122,0,U,67727,999,1537,.46761923E-3,.15056E-3,0
STARLINK-36757,2026-026H,2026-05-22T02:12:52.199712,15.33456201,.00022598,97.2863,195.6383,120.4816,239.6650,0,U,67728,999,1537,.4109254E-3,.1322E-3,0
STARLINK-36751,2026-026J,2026-05-22T02:05:02.250240,15.33459264,.00013619,97.2850,195.6452,114.0895,246.0491,0,U,67729,999,1537,.54555307E-3,.17586E-3,0
STARLINK-36747,2026-026K,2026-05-22T02:08:57.244416,15.33456104,.00023741,97.2853,195.6425,117.1524,242.9961,0,U,67730,999,1537,.51848524E-3,.16707E-3,0
STARLINK-36315,2026-026L,2026-05-22T02:01:07.369248,15.33457817,.00017322,97.2840,195.6485,120.0999,240.0416,0,U,67731,999,1537,.60343913E-3,.19465E-3,0
